{
"type": "FeatureCollection",
"name": "tramos_desove",
"crs": { "type": "name", "properties": { "name": "urn:ogc:def:crs:OGC:1.3:CRS84" } },
"features": [
{ "type": "Feature", "properties": { "objectid": 20091, "arcid": 21105, "grid_code": 2, "from_node": 21471, "to_node": 21479, "elevmed": 132.0, "arcid_1": 21105.0, "time": 0.258478, "longitud": 130.4009434, "shape_leng": 130.40091722099999, "fid_munici": 735, "nombre_ent": "PUERTO BOYACÁ", "categoria": "M", "cod_depart": "15", "departamen": "BOYACÁ", "cod_munici": "572", "nombre_geo": null, "codigo": "15572", "proyecto": null, "symbol": null, "ruleid": 0, "orig_fid": 0, "estado_dre": 0, "dispersion": null, "longitud_1": 0.0, "shape_le_1": 130.40091722099999, "shape_le_2": 0.0, "shape_le_3": 0.0, "shape_le_4": 130.40091722099999, "shape_le_5": 130.40091722099999, "weight_time": 0.258478, "length_m": 130.40091722065731, "weight_len": 130.40091722065731, "sample_id": 3, "place_name": "Pto Colecta 3-Magdalena Arriba Nare", "species_nm": "Astyanax fasciatus", "cum_hrs": 20.991345, "cum_len": 20332.466629257804, "total_hrs": 727.215176, "total_len": 1204228.1346338994, "total_min": 43632.91056, "length": 130.40091722065731 }, "geometry": { "type": "LineString", "coordinates": [ [ -74.467589573285224, 6.038423870511656, 0.0 ], [ -74.468422906598803, 6.037590537493474, 0.0 ] ] } },
{ "type": "Feature", "properties": { "objectid": 20101, "arcid": 21115, "grid_code": 2, "from_node": 21484, "to_node": 21471, "elevmed": 133.9, "arcid_1": 21115.0, "time": 3.44438, "longitud": 3303.1771013399998, "shape_leng": 3303.1771324000001, "fid_munici": 735, "nombre_ent": "PUERTO BOYACÁ", "categoria": "M", "cod_depart": "15", "departamen": "BOYACÁ", "cod_munici": "572", "nombre_geo": "Quebrada Agualinda", "codigo": "15572", "proyecto": null, "symbol": "2", "ruleid": 0, "orig_fid": 0, "estado_dre": 5101, "dispersion": "0", "longitud_1": 9337.67, "shape_le_1": 3303.1771324000001, "shape_le_2": 0.084405106847499994, "shape_le_3": 0.084405105644500003, "shape_le_4": 3303.1771324000001, "shape_le_5": 3303.1771324000001, "weight_time": 3.44438, "length_m": 3303.1771323972589, "weight_len": 3303.1771323972589, "sample_id": 3, "place_name": "Pto Colecta 3-Magdalena Arriba Nare", "species_nm": "Astyanax fasciatus", "cum_hrs": 21.249823, "cum_len": 20462.867546478461, "total_hrs": 727.215176, "total_len": 1204228.1346338994, "total_min": 43632.91056, "length": 3303.1771323972589 }, "geometry": { "type": "LineString", "coordinates": [ [ -74.441756240082299, 6.036757204663363, 0.0 ], [ -74.445089573750607, 6.040090537950733, 0.0 ], [ -74.449256240218119, 6.037590537740855, 0.0 ], [ -74.454256239813404, 6.038423870764401, 0.0 ], [ -74.456756240180582, 6.035923870548396, 0.0 ], [ -74.460089572898241, 6.03842387102016, 0.0 ], [ -74.467589573285224, 6.038423870511656, 0.0 ] ] } },
{ "type": "Feature", "properties": { "objectid": 20135, "arcid": 21150, "grid_code": 2, "from_node": 21530, "to_node": 21484, "elevmed": 138.2, "arcid_1": 21150.0, "time": 1.042038, "longitud": 1257.6086377300001, "shape_leng": 1257.60858424, "fid_munici": 735, "nombre_ent": "PUERTO BOYACÁ", "categoria": "M", "cod_depart": "15", "departamen": "BOYACÁ", "cod_munici": "572", "nombre_geo": "Caño Abrecacao", "codigo": "15572", "proyecto": null, "symbol": "2", "ruleid": 0, "orig_fid": 0, "estado_dre": 5101, "dispersion": "0", "longitud_1": 1767.89, "shape_le_1": 1257.60858424, "shape_le_2": 0.015971212157400001, "shape_le_3": 0.015971212047999998, "shape_le_4": 1257.60858424, "shape_le_5": 1257.60858424, "weight_time": 1.042038, "length_m": 1257.6085842418281, "weight_len": 1257.6085842418281, "sample_id": 3, "place_name": "Pto Colecta 3-Magdalena Arriba Nare", "species_nm": "Astyanax fasciatus", "cum_hrs": 24.694203, "cum_len": 23766.044678875718, "total_hrs": 727.215176, "total_len": 1204228.1346338994, "total_min": 43632.91056, "length": 1257.6085842418281 }, "geometry": { "type": "LineString", "coordinates": [ [ -74.434256240183146, 6.029257203899925, 0.0 ], [ -74.435089572908495, 6.029257204729487, 0.0 ], [ -74.436756239985357, 6.030923870580166, 0.0 ], [ -74.436756240332514, 6.032590537590671, 0.0 ], [ -74.441756240082299, 6.036757204663363, 0.0 ] ] } },
{ "type": "Feature", "properties": { "objectid": 20198, "arcid": 21214, "grid_code": 2, "from_node": 21591, "to_node": 21530, "elevmed": 144.7, "arcid_1": 21214.0, "time": 2.089901, "longitud": 2738.9496049200002, "shape_leng": 2738.9496840199999, "fid_munici": 735, "nombre_ent": "PUERTO BOYACÁ", "categoria": "M", "cod_depart": "15", "departamen": "BOYACÁ", "cod_munici": "572", "nombre_geo": "Caño Palagua", "codigo": "15572", "proyecto": null, "symbol": "2", "ruleid": 0, "orig_fid": 0, "estado_dre": 5101, "dispersion": "0", "longitud_1": 14763.7, "shape_le_1": 2738.9496840199999, "shape_le_2": 0.133402940754, "shape_le_3": 0.13340294147599999, "shape_le_4": 2738.9496840199999, "shape_le_5": 2738.9496840199999, "weight_time": 2.089901, "length_m": 2738.9496840187276, "weight_len": 2738.9496840187276, "sample_id": 3, "place_name": "Pto Colecta 3-Magdalena Arriba Nare", "species_nm": "Astyanax fasciatus", "cum_hrs": 25.736241, "cum_len": 25023.653263117547, "total_hrs": 727.215176, "total_len": 1204228.1346338994, "total_min": 43632.91056, "length": 2738.9496840187276 }, "geometry": { "type": "LineString", "coordinates": [ [ -74.413422906526591, 6.020090537334052, 0.0 ], [ -74.418422906447532, 6.025090537845277, 0.0 ], [ -74.42092290664624, 6.025090537887997, 0.0 ], [ -74.423422906366454, 6.026757204321217, 0.0 ], [ -74.42508957353887, 6.02925720469977, 0.0 ], [ -74.434256240183146, 6.029257203899925, 0.0 ] ] } },
{ "type": "Feature", "properties": { "objectid": 20949, "arcid": 21988, "grid_code": 3, "from_node": 22371, "to_node": 22199, "elevmed": 303.7, "arcid_1": 21988.0, "time": 1.02508, "longitud": 3641.6352445100001, "shape_leng": 3641.6352098399998, "fid_munici": 662, "nombre_ent": "SONSÓN", "categoria": "M", "cod_depart": "05", "departamen": "ANTIOQUIA", "cod_munici": "756", "nombre_geo": "Río Claro", "codigo": "05756", "proyecto": null, "symbol": "2", "ruleid": 0, "orig_fid": 0, "estado_dre": 5101, "dispersion": "0", "longitud_1": 59934.3, "shape_le_1": 2831.79416034, "shape_le_2": 0.54150336393099996, "shape_le_3": 0.54150336432500001, "shape_le_4": 2831.79416034, "shape_le_5": 2831.79416034, "weight_time": 1.02508, "length_m": 2831.7941603431445, "weight_len": 2831.7941603431445, "sample_id": 3, "place_name": "Pto Colecta 3-Magdalena Arriba Nare", "species_nm": "Astyanax fasciatus", "cum_hrs": 18.500581, "cum_len": 35619.504091196883, "total_hrs": 727.215176, "total_len": 1204228.1346338994, "total_min": 43632.91056, "length": 2831.7941603431445 }, "geometry": { "type": "MultiLineString", "coordinates": [ [ [ -74.853422905832232, 5.909859206742271, 0.0 ], [ -74.853422906955799, 5.912590537648468, 0.0 ] ], [ [ -74.856055509603166, 5.899777913342711, 0.0 ], [ -74.855089573644051, 5.905090537958615, 0.0 ], [ -74.854828879135482, 5.905481581773778, 0.0 ] ], [ [ -74.854145912717371, 5.88725958790857, 0.0 ], [ -74.855089572899033, 5.89009053746692, 0.0 ], [ -74.853422906374746, 5.891757204018993, 0.0 ], [ -74.856756239964682, 5.895923871308304, 0.0 ], [ -74.856203236717079, 5.898965413838849, 0.0 ] ], [ [ -74.852589573330334, 5.882590537959251, 0.0 ], [ -74.853610833367981, 5.885654349866342, 0.0 ] ] ] } },
{ "type": "Feature", "properties": { "objectid": 20949, "arcid": 21988, "grid_code": 3, "from_node": 22371, "to_node": 22199, "elevmed": 303.7, "arcid_1": 21988.0, "time": 1.02508, "longitud": 3641.6352445100001, "shape_leng": 3641.6352098399998, "fid_munici": 675, "nombre_ent": "SAN FRANCISCO", "categoria": "M", "cod_depart": "05", "departamen": "ANTIOQUIA", "cod_munici": "652", "nombre_geo": "Río Claro", "codigo": "05652", "proyecto": null, "symbol": "2", "ruleid": 0, "orig_fid": 0, "estado_dre": 5101, "dispersion": "0", "longitud_1": 59934.3, "shape_le_1": 809.841049494, "shape_le_2": 0.54150336393099996, "shape_le_3": 0.54150336432500001, "shape_le_4": 809.841049494, "shape_le_5": 809.841049494, "weight_time": 1.02508, "length_m": 809.84104949371681, "weight_len": 809.84104949371681, "sample_id": 3, "place_name": "Pto Colecta 3-Magdalena Arriba Nare", "species_nm": "Astyanax fasciatus", "cum_hrs": 18.500581, "cum_len": 35619.504091196883, "total_hrs": 727.215176, "total_len": 1204228.1346338994, "total_min": 43632.91056, "length": 809.84104949371681 }, "geometry": { "type": "MultiLineString", "coordinates": [ [ [ -74.854828879135482, 5.905481581773778, 0.0 ], [ -74.853422906658494, 5.907590537741506, 0.0 ], [ -74.853422905832232, 5.909859206742271, 0.0 ] ], [ [ -74.856203236717079, 5.898965413838849, 0.0 ], [ -74.856055509603166, 5.899777913342711, 0.0 ] ], [ [ -74.853610833367981, 5.885654349866342, 0.0 ], [ -74.854145912717371, 5.88725958790857, 0.0 ] ] ] } },
{ "type": "Feature", "properties": { "objectid": 21031, "arcid": 22071, "grid_code": 3, "from_node": 22461, "to_node": 22371, "elevmed": 331.8, "arcid_1": 22071.0, "time": 0.75088, "longitud": 2839.7907613100001, "shape_leng": 2839.7907927800002, "fid_munici": 662, "nombre_ent": "SONSÓN", "categoria": "M", "cod_depart": "05", "departamen": "ANTIOQUIA", "cod_munici": "756", "nombre_geo": "Río Claro", "codigo": "05756", "proyecto": null, "symbol": "2", "ruleid": 0, "orig_fid": 0, "estado_dre": 5101, "dispersion": "0", "longitud_1": 59934.3, "shape_le_1": 2204.2995101699998, "shape_le_2": 0.54150336393099996, "shape_le_3": 0.54150336432500001, "shape_le_4": 2204.2995101699998, "shape_le_5": 2204.2995101699998, "weight_time": 0.75088, "length_m": 2204.2995101745141, "weight_len": 2204.2995101745141, "sample_id": 3, "place_name": "Pto Colecta 3-Magdalena Arriba Nare", "species_nm": "Astyanax fasciatus", "cum_hrs": 19.525661, "cum_len": 36429.345140690602, "total_hrs": 727.215176, "total_len": 1204228.1346338994, "total_min": 43632.91056, "length": 2204.2995101745141 }, "geometry": { "type": "MultiLineString", "coordinates": [ [ [ -74.852589572892953, 5.88201959100034, 0.0 ], [ -74.852589573330334, 5.882590537959251, 0.0 ] ], [ [ -74.857936307771212, 5.875577143359861, 0.0 ], [ -74.852589572956532, 5.880923870545868, 0.0 ], [ -74.852589572896733, 5.881141692348956, 0.0 ] ], [ [ -74.867589572927415, 5.865923870832511, 0.0 ], [ -74.866756239711961, 5.872590537570903, 0.0 ], [ -74.862595651969144, 5.875086889293049, 0.0 ] ] ] } },
{ "type": "Feature", "properties": { "objectid": 21031, "arcid": 22071, "grid_code": 3, "from_node": 22461, "to_node": 22371, "elevmed": 331.8, "arcid_1": 22071.0, "time": 0.75088, "longitud": 2839.7907613100001, "shape_leng": 2839.7907927800002, "fid_munici": 675, "nombre_ent": "SAN FRANCISCO", "categoria": "M", "cod_depart": "05", "departamen": "ANTIOQUIA", "cod_munici": "652", "nombre_geo": "Río Claro", "codigo": "05652", "proyecto": null, "symbol": "2", "ruleid": 0, "orig_fid": 0, "estado_dre": 5101, "dispersion": "0", "longitud_1": 59934.3, "shape_le_1": 635.49128260400005, "shape_le_2": 0.54150336393099996, "shape_le_3": 0.54150336432500001, "shape_le_4": 635.49128260400005, "shape_le_5": 635.49128260400005, "weight_time": 0.75088, "length_m": 635.49128260389648, "weight_len": 635.49128260389648, "sample_id": 3, "place_name": "Pto Colecta 3-Magdalena Arriba Nare", "species_nm": "Astyanax fasciatus", "cum_hrs": 19.525661, "cum_len": 36429.345140690602, "total_hrs": 727.215176, "total_len": 1204228.1346338994, "total_min": 43632.91056, "length": 635.49128260389648 }, "geometry": { "type": "MultiLineString", "coordinates": [ [ [ -74.852589572896733, 5.881141692348956, 0.0 ], [ -74.852589572892953, 5.88201959100034, 0.0 ] ], [ [ -74.862595651969144, 5.875086889293049, 0.0 ], [ -74.862589573045895, 5.875090537198881, 0.0 ], [ -74.858422906834335, 5.875090537576278, 0.0 ], [ -74.857936307771212, 5.875577143359861, 0.0 ] ] ] } },
{ "type": "Feature", "properties": { "objectid": 21185, "arcid": 22234, "grid_code": 3, "from_node": 22618, "to_node": 22461, "elevmed": 347.5, "arcid_1": 22234.0, "time": 1.480979, "longitud": 4170.2314019699998, "shape_leng": 4170.2314261499996, "fid_munici": 662, "nombre_ent": "SONSÓN", "categoria": "M", "cod_depart": "05", "departamen": "ANTIOQUIA", "cod_munici": "756", "nombre_geo": "Río Claro", "codigo": "05756", "proyecto": null, "symbol": "2", "ruleid": 0, "orig_fid": 0, "estado_dre": 5101, "dispersion": "0", "longitud_1": 59934.3, "shape_le_1": 1590.3727557, "shape_le_2": 0.54150336393099996, "shape_le_3": 0.54150336432500001, "shape_le_4": 1590.3727557, "shape_le_5": 1590.3727557, "weight_time": 1.480979, "length_m": 1590.3727556985671, "weight_len": 1590.3727556985671, "sample_id": 3, "place_name": "Pto Colecta 3-Magdalena Arriba Nare", "species_nm": "Astyanax fasciatus", "cum_hrs": 20.276541, "cum_len": 37064.836423294502, "total_hrs": 727.215176, "total_len": 1204228.1346338994, "total_min": 43632.91056, "length": 1590.3727556985671 }, "geometry": { "type": "MultiLineString", "coordinates": [ [ [ -74.868181957810293, 5.862369585678364, 0.0 ], [ -74.867589572927415, 5.865923870832511, 0.0 ] ], [ [ -74.875156608240218, 5.849257204429684, 0.0 ], [ -74.875089573390483, 5.849257204735118, 0.0 ], [ -74.874788023607053, 5.849601837890419, 0.0 ] ], [ [ -74.879360198107221, 5.847590537353545, 0.0 ], [ -74.879256239605709, 5.847590537507687, 0.0 ], [ -74.877735889538442, 5.849110887988343, 0.0 ] ], [ [ -74.885295943237466, 5.842177813538647, 0.0 ], [ -74.884256240334622, 5.844257204516314, 0.0 ], [ -74.881386776338971, 5.847126671444868, 0.0 ] ], [ [ -74.88650085129288, 5.839767999318936, 0.0 ], [ -74.885781515800531, 5.841206671756222, 0.0 ] ] ] } },
{ "type": "Feature", "properties": { "objectid": 21185, "arcid": 22234, "grid_code": 3, "from_node": 22618, "to_node": 22461, "elevmed": 347.5, "arcid_1": 22234.0, "time": 1.480979, "longitud": 4170.2314019699998, "shape_leng": 4170.2314261499996, "fid_munici": 675, "nombre_ent": "SAN FRANCISCO", "categoria": "M", "cod_depart": "05", "departamen": "ANTIOQUIA", "cod_munici": "652", "nombre_geo": null, "codigo": "05652", "proyecto": null, "symbol": "2", "ruleid": 0, "orig_fid": 0, "estado_dre": 5101, "dispersion": "0", "longitud_1": 2209.0, "shape_le_1": 2579.8586704499999, "shape_le_2": 0.019952404325599998, "shape_le_3": 0.0199524037956, "shape_le_4": 2579.8586704499999, "shape_le_5": 2579.8586704499999, "weight_time": 1.480979, "length_m": 2579.8586704533927, "weight_len": 2579.8586704533927, "sample_id": 3, "place_name": "Pto Colecta 3-Magdalena Arriba Nare", "species_nm": "Astyanax fasciatus", "cum_hrs": 20.276541, "cum_len": 37064.836423294502, "total_hrs": 727.215176, "total_len": 1204228.1346338994, "total_min": 43632.91056, "length": 2579.8586704533927 }, "geometry": { "type": "MultiLineString", "coordinates": [ [ [ -74.874788023607053, 5.849601837890419, 0.0 ], [ -74.869256239764539, 5.855923870893047, 0.0 ], [ -74.868181957810293, 5.862369585678364, 0.0 ] ], [ [ -74.877735889538442, 5.849110887988343, 0.0 ], [ -74.877589573310331, 5.849257204315201, 0.0 ], [ -74.875156608240218, 5.849257204429684, 0.0 ] ], [ [ -74.881386776338971, 5.847126671444868, 0.0 ], [ -74.880922907005228, 5.847590537910731, 0.0 ], [ -74.879360198107221, 5.847590537353545, 0.0 ] ], [ [ -74.885781515800531, 5.841206671756222, 0.0 ], [ -74.885295943237466, 5.842177813538647, 0.0 ] ], [ [ -74.887589573764998, 5.837590537999747, 0.0 ], [ -74.88650085129288, 5.839767999318936, 0.0 ] ] ] } },
{ "type": "Feature", "properties": { "objectid": 21194, "arcid": 22243, "grid_code": 3, "from_node": 22587, "to_node": 22635, "elevmed": 399.0, "arcid_1": 22243.0, "time": 1.60276, "longitud": 1311.0384671700001, "shape_leng": 1311.0384196299999, "fid_munici": 662, "nombre_ent": "SONSÓN", "categoria": "M", "cod_depart": "05", "departamen": "ANTIOQUIA", "cod_munici": "756", "nombre_geo": "Río Claro", "codigo": "05756", "proyecto": null, "symbol": "2", "ruleid": 0, "orig_fid": 0, "estado_dre": 5101, "dispersion": "0", "longitud_1": 59934.3, "shape_le_1": 175.688577302, "shape_le_2": 0.54150336393099996, "shape_le_3": 0.54150336432500001, "shape_le_4": 175.688577302, "shape_le_5": 175.688577302, "weight_time": 1.60276, "length_m": 175.68857730224511, "weight_len": 175.68857730224511, "sample_id": 3, "place_name": "Pto Colecta 3-Magdalena Arriba Nare", "species_nm": "Astyanax fasciatus", "cum_hrs": 23.359604, "cum_len": 41902.700844790539, "total_hrs": 727.215176, "total_len": 1204228.1346338994, "total_min": 43632.91056, "length": 175.68857730224511 }, "geometry": { "type": "LineString", "coordinates": [ [ -74.910018264661204, 5.839274664881166, 0.0 ], [ -74.90878986916961, 5.838269608087328, 0.0 ] ] } },
{ "type": "Feature", "properties": { "objectid": 21194, "arcid": 22243, "grid_code": 3, "from_node": 22587, "to_node": 22635, "elevmed": 399.0, "arcid_1": 22243.0, "time": 1.60276, "longitud": 1311.0384671700001, "shape_leng": 1311.0384196299999, "fid_munici": 675, "nombre_ent": "SAN FRANCISCO", "categoria": "M", "cod_depart": "05", "departamen": "ANTIOQUIA", "cod_munici": "652", "nombre_geo": "Quebrada La Clara", "codigo": "05652", "proyecto": null, "symbol": "2", "ruleid": 0, "orig_fid": 0, "estado_dre": 5101, "dispersion": "0", "longitud_1": 4330.66, "shape_le_1": 1135.34984233, "shape_le_2": 0.0391442442647, "shape_le_3": 0.039144243705100001, "shape_le_4": 1135.34984233, "shape_le_5": 1135.34984233, "weight_time": 1.60276, "length_m": 1135.3498423283174, "weight_len": 1135.3498423283174, "sample_id": 3, "place_name": "Pto Colecta 3-Magdalena Arriba Nare", "species_nm": "Astyanax fasciatus", "cum_hrs": 23.359604, "cum_len": 41902.700844790539, "total_hrs": 727.215176, "total_len": 1204228.1346338994, "total_min": 43632.91056, "length": 1135.3498423283174 }, "geometry": { "type": "MultiLineString", "coordinates": [ [ [ -74.915089573114372, 5.843423870718378, 0.0 ], [ -74.910018264661204, 5.839274664881166, 0.0 ] ], [ [ -74.90878986916961, 5.838269608087328, 0.0 ], [ -74.905922906691956, 5.83592387109837, 0.0 ] ] ] } },
{ "type": "Feature", "properties": { "objectid": 21233, "arcid": 22282, "grid_code": 3, "from_node": 22671, "to_node": 22587, "elevmed": 413.1, "arcid_1": 22282.0, "time": 0.739271, "longitud": 2414.0328518800002, "shape_leng": 2414.03288389, "fid_munici": 662, "nombre_ent": "SONSÓN", "categoria": "M", "cod_depart": "05", "departamen": "ANTIOQUIA", "cod_munici": "756", "nombre_geo": null, "codigo": "05756", "proyecto": null, "symbol": "2", "ruleid": 0, "orig_fid": 0, "estado_dre": 5101, "dispersion": "0", "longitud_1": 2654.4, "shape_le_1": 1801.8297456400001, "shape_le_2": 0.023974805138300002, "shape_le_3": 0.023974805596500001, "shape_le_4": 1801.8297456400001, "shape_le_5": 1801.8297456400001, "weight_time": 0.739271, "length_m": 1801.8297456362861, "weight_len": 1801.8297456362861, "sample_id": 3, "place_name": "Pto Colecta 3-Magdalena Arriba Nare", "species_nm": "Astyanax fasciatus", "cum_hrs": 24.962364, "cum_len": 43038.050687118855, "total_hrs": 727.215176, "total_len": 1204228.1346338994, "total_min": 43632.91056, "length": 1801.8297456362861 }, "geometry": { "type": "MultiLineString", "coordinates": [ [ [ -74.91870467788371, 5.840923871463132, 0.0 ], [ -74.918422906467612, 5.840923870775607, 0.0 ], [ -74.915520455689162, 5.84310071090386, 0.0 ] ], [ [ -74.922112263867234, 5.835567848234201, 0.0 ], [ -74.920922906446634, 5.83675720448593, 0.0 ], [ -74.920922907102067, 5.840090537825207, 0.0 ], [ -74.920687911668111, 5.840325532860758, 0.0 ] ], [ [ -74.928993312020154, 5.830528755375918, 0.0 ], [ -74.926756240242128, 5.834257203868657, 0.0 ], [ -74.924132686184564, 5.834781918182414, 0.0 ] ] ] } },
{ "type": "Feature", "properties": { "objectid": 21233, "arcid": 22282, "grid_code": 3, "from_node": 22671, "to_node": 22587, "elevmed": 413.1, "arcid_1": 22282.0, "time": 0.739271, "longitud": 2414.0328518800002, "shape_leng": 2414.03288389, "fid_munici": 675, "nombre_ent": "SAN FRANCISCO", "categoria": "M", "cod_depart": "05", "departamen": "ANTIOQUIA", "cod_munici": "652", "nombre_geo": "Río Claro", "codigo": "05652", "proyecto": null, "symbol": "2", "ruleid": 0, "orig_fid": 0, "estado_dre": 5101, "dispersion": "0", "longitud_1": 59934.3, "shape_le_1": 612.20313825400001, "shape_le_2": 0.54150336393099996, "shape_le_3": 0.54150336432500001, "shape_le_4": 612.20313825400001, "shape_le_5": 612.20313825400001, "weight_time": 0.739271, "length_m": 612.20313825374114, "weight_len": 612.20313825374114, "sample_id": 3, "place_name": "Pto Colecta 3-Magdalena Arriba Nare", "species_nm": "Astyanax fasciatus", "cum_hrs": 24.962364, "cum_len": 43038.050687118855, "total_hrs": 727.215176, "total_len": 1204228.1346338994, "total_min": 43632.91056, "length": 612.20313825374114 }, "geometry": { "type": "MultiLineString", "coordinates": [ [ [ -74.915520455689162, 5.84310071090386, 0.0 ], [ -74.915089573114372, 5.843423870718378, 0.0 ] ], [ [ -74.920687911668111, 5.840325532860758, 0.0 ], [ -74.920089573234307, 5.840923870721165, 0.0 ], [ -74.91870467788371, 5.840923871463132, 0.0 ] ], [ [ -74.924132686184564, 5.834781918182414, 0.0 ], [ -74.922589573708692, 5.835090537187573, 0.0 ], [ -74.922112263867234, 5.835567848234201, 0.0 ] ], [ [ -74.929256240327121, 5.830090537956156, 0.0 ], [ -74.928993312020154, 5.830528755375918, 0.0 ] ] ] } },
{ "type": "Feature", "properties": { "objectid": 21239, "arcid": 22288, "grid_code": 3, "from_node": 22635, "to_node": 22677, "elevmed": 377.5, "arcid_1": 22288.0, "time": 0.328308, "longitud": 1707.4539938, "shape_leng": 1707.4540335, "fid_munici": 662, "nombre_ent": "SONSÓN", "categoria": "M", "cod_depart": "05", "departamen": "ANTIOQUIA", "cod_munici": "756", "nombre_geo": null, "codigo": "05756", "proyecto": null, "symbol": null, "ruleid": 0, "orig_fid": 0, "estado_dre": 0, "dispersion": null, "longitud_1": 0.0, "shape_le_1": 14.639715350199999, "shape_le_2": 0.0, "shape_le_3": 0.0, "shape_le_4": 14.639715350199999, "shape_le_5": 14.639715350199999, "weight_time": 0.328308, "length_m": 14.639715350209418, "weight_len": 14.639715350209418, "sample_id": 3, "place_name": "Pto Colecta 3-Magdalena Arriba Nare", "species_nm": "Astyanax fasciatus", "cum_hrs": 23.031296, "cum_len": 40209.886526642644, "total_hrs": 727.215176, "total_len": 1204228.1346338994, "total_min": 43632.91056, "length": 14.639715350209418 }, "geometry": { "type": "LineString", "coordinates": [ [ -74.892721749436518, 5.829257204772583, 0.0 ], [ -74.89258957294831, 5.829257204367376, 0.0 ] ] } },
{ "type": "Feature", "properties": { "objectid": 21239, "arcid": 22288, "grid_code": 3, "from_node": 22635, "to_node": 22677, "elevmed": 377.5, "arcid_1": 22288.0, "time": 0.328308, "longitud": 1707.4539938, "shape_leng": 1707.4540335, "fid_munici": 675, "nombre_ent": "SAN FRANCISCO", "categoria": "M", "cod_depart": "05", "departamen": "ANTIOQUIA", "cod_munici": "652", "nombre_geo": "Río Claro", "codigo": "05652", "proyecto": null, "symbol": "2", "ruleid": 0, "orig_fid": 0, "estado_dre": 5101, "dispersion": "0", "longitud_1": 59934.3, "shape_le_1": 1692.81431815, "shape_le_2": 0.54150336393099996, "shape_le_3": 0.54150336432500001, "shape_le_4": 1692.81431815, "shape_le_5": 1692.81431815, "weight_time": 0.328308, "length_m": 1692.8143181478936, "weight_len": 1692.8143181478936, "sample_id": 3, "place_name": "Pto Colecta 3-Magdalena Arriba Nare", "species_nm": "Astyanax fasciatus", "cum_hrs": 23.031296, "cum_len": 40209.886526642644, "total_hrs": 727.215176, "total_len": 1204228.1346338994, "total_min": 43632.91056, "length": 1692.8143181478936 }, "geometry": { "type": "LineString", "coordinates": [ [ -74.905922906691956, 5.83592387109837, 0.0 ], [ -74.898422906315901, 5.832590537374121, 0.0 ], [ -74.895089572883734, 5.829257204252022, 0.0 ], [ -74.892721749436518, 5.829257204772583, 0.0 ] ] } },
{ "type": "Feature", "properties": { "objectid": 21240, "arcid": 22289, "grid_code": 3, "from_node": 22677, "to_node": 22618, "elevmed": 355.0, "arcid_1": 22289.0, "time": 1.273776, "longitud": 1104.7206735, "shape_leng": 1104.7206555800001, "fid_munici": 662, "nombre_ent": "SONSÓN", "categoria": "M", "cod_depart": "05", "departamen": "ANTIOQUIA", "cod_munici": "756", "nombre_geo": "Quebrada La Hermosa", "codigo": "05756", "proyecto": null, "symbol": "2", "ruleid": 0, "orig_fid": 0, "estado_dre": 5101, "dispersion": "0", "longitud_1": 7393.08, "shape_le_1": 539.52922268999998, "shape_le_2": 0.066805063777900006, "shape_le_3": 0.066805066073700001, "shape_le_4": 539.52922268999998, "shape_le_5": 539.52922268999998, "weight_time": 1.273776, "length_m": 539.52922268958741, "weight_len": 539.52922268958741, "sample_id": 3, "place_name": "Pto Colecta 3-Magdalena Arriba Nare", "species_nm": "Astyanax fasciatus", "cum_hrs": 21.75752, "cum_len": 39644.695093747898, "total_hrs": 727.215176, "total_len": 1204228.1346338994, "total_min": 43632.91056, "length": 539.52922268958741 }, "geometry": { "type": "LineString", "coordinates": [ [ -74.89258957294831, 5.829257204367376, 0.0 ], [ -74.889256240245231, 5.832590537452409, 0.0 ], [ -74.8892053824692, 5.832743112641809, 0.0 ] ] } },
{ "type": "Feature", "properties": { "objectid": 21240, "arcid": 22289, "grid_code": 3, "from_node": 22677, "to_node": 22618, "elevmed": 355.0, "arcid_1": 22289.0, "time": 1.273776, "longitud": 1104.7206735, "shape_leng": 1104.7206555800001, "fid_munici": 675, "nombre_ent": "SAN FRANCISCO", "categoria": "M", "cod_depart": "05", "departamen": "ANTIOQUIA", "cod_munici": "652", "nombre_geo": "Río Claro", "codigo": "05652", "proyecto": null, "symbol": "2", "ruleid": 0, "orig_fid": 0, "estado_dre": 5101, "dispersion": "0", "longitud_1": 59934.3, "shape_le_1": 565.19143289500005, "shape_le_2": 0.54150336393099996, "shape_le_3": 0.54150336432500001, "shape_le_4": 565.19143289500005, "shape_le_5": 565.19143289500005, "weight_time": 1.273776, "length_m": 565.19143289474277, "weight_len": 565.19143289474277, "sample_id": 3, "place_name": "Pto Colecta 3-Magdalena Arriba Nare", "species_nm": "Astyanax fasciatus", "cum_hrs": 21.75752, "cum_len": 39644.695093747898, "total_hrs": 727.215176, "total_len": 1204228.1346338994, "total_min": 43632.91056, "length": 565.19143289474277 }, "geometry": { "type": "LineString", "coordinates": [ [ -74.8892053824692, 5.832743112641809, 0.0 ], [ -74.887589573764998, 5.837590537999747, 0.0 ] ] } },
{ "type": "Feature", "properties": { "objectid": 21274, "arcid": 22324, "grid_code": 2, "from_node": 22713, "to_node": 22591, "elevmed": 341.0, "arcid_1": 22324.0, "time": 1.879253, "longitud": 2401.2174662900002, "shape_leng": 2401.2174665100001, "fid_munici": 662, "nombre_ent": "SONSÓN", "categoria": "M", "cod_depart": "05", "departamen": "ANTIOQUIA", "cod_munici": "756", "nombre_geo": "Quebrada Las Iglesias", "codigo": "05756", "proyecto": null, "symbol": "2", "ruleid": 0, "orig_fid": 0, "estado_dre": 5101, "dispersion": "0", "longitud_1": 15468.2, "shape_le_1": 2401.2174665100001, "shape_le_2": 0.139795032736, "shape_le_3": 0.13979503192500001, "shape_le_4": 2401.2174665100001, "shape_le_5": 2401.2174665100001, "weight_time": 1.879253, "length_m": 2401.2174665140833, "weight_len": 2401.2174665140833, "sample_id": 3, "place_name": "Pto Colecta 3-Magdalena Arriba Nare", "species_nm": "Astyanax fasciatus", "cum_hrs": 21.406781, "cum_len": 47490.917193880887, "total_hrs": 727.215176, "total_len": 1204228.1346338994, "total_min": 43632.91056, "length": 2401.2174665140833 }, "geometry": { "type": "LineString", "coordinates": [ [ -74.820089573603425, 5.824257204171598, 0.0 ], [ -74.819256240044254, 5.825090537993996, 0.0 ], [ -74.819256240386736, 5.828423871078606, 0.0 ], [ -74.812589573591509, 5.834257204297973, 0.0 ], [ -74.812589573143455, 5.842590537354504, 0.0 ] ] } },
{ "type": "Feature", "properties": { "objectid": 21370, "arcid": 22420, "grid_code": 2, "from_node": 22805, "to_node": 22713, "elevmed": 351.8, "arcid_1": 22420.0, "time": 2.659529, "longitud": 3048.6438063400001, "shape_leng": 3048.6436364699998, "fid_munici": 662, "nombre_ent": "SONSÓN", "categoria": "M", "cod_depart": "05", "departamen": "ANTIOQUIA", "cod_munici": "756", "nombre_geo": "Quebrada Las Iglesias", "codigo": "05756", "proyecto": null, "symbol": "2", "ruleid": 0, "orig_fid": 0, "estado_dre": 5101, "dispersion": "0", "longitud_1": 15468.2, "shape_le_1": 3048.6436364699998, "shape_le_2": 0.139795032736, "shape_le_3": 0.13979503192500001, "shape_le_4": 3048.6436364699998, "shape_le_5": 3048.6436364699998, "weight_time": 2.659529, "length_m": 3048.6436364669185, "weight_len": 3048.6436364669185, "sample_id": 3, "place_name": "Pto Colecta 3-Magdalena Arriba Nare", "species_nm": "Astyanax fasciatus", "cum_hrs": 23.286034, "cum_len": 49892.134660394971, "total_hrs": 727.215176, "total_len": 1204228.1346338994, "total_min": 43632.91056, "length": 3048.6436364669185 }, "geometry": { "type": "LineString", "coordinates": [ [ -74.839256239752984, 5.810090538064649, 0.0 ], [ -74.835089573771839, 5.812590537899924, 0.0 ], [ -74.834256239574472, 5.814257203998354, 0.0 ], [ -74.829256239941401, 5.815923871350631, 0.0 ], [ -74.828422906388866, 5.820923871238954, 0.0 ], [ -74.82592290633518, 5.824257203989026, 0.0 ], [ -74.82342290662686, 5.825090538041984, 0.0 ], [ -74.8209229066006, 5.825090537731848, 0.0 ], [ -74.820089573603425, 5.824257204171598, 0.0 ] ] } },
{ "type": "Feature", "properties": { "objectid": 21379, "arcid": 22429, "grid_code": 2, "from_node": 22808, "to_node": 22809, "elevmed": 636.3, "arcid_1": 22429.0, "time": 0.202192, "longitud": 336.77855902499999, "shape_leng": 336.778516024, "fid_munici": 675, "nombre_ent": "SAN FRANCISCO", "categoria": "M", "cod_depart": "05", "departamen": "ANTIOQUIA", "cod_munici": "652", "nombre_geo": "Quebrada El Criadera", "codigo": "05652", "proyecto": null, "symbol": "2", "ruleid": 0, "orig_fid": 0, "estado_dre": 5101, "dispersion": "0", "longitud_1": 5988.35, "shape_le_1": 336.778516024, "shape_le_2": 0.054085568868999997, "shape_le_3": 0.054085569297099997, "shape_le_4": 336.778516024, "shape_le_5": 336.778516024, "weight_time": 0.202192, "length_m": 336.7785160244581, "weight_len": 336.7785160244581, "sample_id": 3, "place_name": "Pto Colecta 3-Magdalena Arriba Nare", "species_nm": "Astyanax fasciatus", "cum_hrs": 30.318566, "cum_len": 50779.00817603762, "total_hrs": 727.215176, "total_len": 1204228.1346338994, "total_min": 43632.91056, "length": 336.7785160244581 }, "geometry": { "type": "LineString", "coordinates": [ [ -74.990922907091061, 5.809257204449842, 0.0 ], [ -74.990089573422821, 5.808423871347426, 0.0 ], [ -74.988422906968836, 5.809257204070873, 0.0 ] ] } },
{ "type": "Feature", "properties": { "objectid": 21390, "arcid": 22441, "grid_code": 2, "from_node": 22809, "to_node": 22822, "elevmed": 626.7, "arcid_1": 22441.0, "time": 0.136913, "longitud": 390.67019319000002, "shape_leng": 390.67019781200003, "fid_munici": 675, "nombre_ent": "SAN FRANCISCO", "categoria": "M", "cod_depart": "05", "departamen": "ANTIOQUIA", "cod_munici": "652", "nombre_geo": "Quebrada La Catalina", "codigo": "05652", "proyecto": null, "symbol": "2", "ruleid": 0, "orig_fid": 0, "estado_dre": 5101, "dispersion": "0", "longitud_1": 2722.63, "shape_le_1": 390.67019781200003, "shape_le_2": 0.024585585578199998, "shape_le_3": 0.0245855862362, "shape_le_4": 390.67019781200003, "shape_le_5": 390.67019781200003, "weight_time": 0.136913, "length_m": 390.6701978115002, "weight_len": 390.6701978115002, "sample_id": 3, "place_name": "Pto Colecta 3-Magdalena Arriba Nare", "species_nm": "Astyanax fasciatus", "cum_hrs": 30.181653, "cum_len": 50388.337978226118, "total_hrs": 727.215176, "total_len": 1204228.1346338994, "total_min": 43632.91056, "length": 390.6701978115002 }, "geometry": { "type": "LineString", "coordinates": [ [ -74.988422906968836, 5.809257204070873, 0.0 ], [ -74.986756240376877, 5.80842387054185, 0.0 ], [ -74.986756240153966, 5.806757203853877, 0.0 ] ] } },
{ "type": "Feature", "properties": { "objectid": 21438, "arcid": 22491, "grid_code": 2, "from_node": 22822, "to_node": 22873, "elevmed": 604.7, "arcid_1": 22491.0, "time": 0.335753, "longitud": 943.48266810799998, "shape_leng": 943.48263890700002, "fid_munici": 675, "nombre_ent": "SAN FRANCISCO", "categoria": "M", "cod_depart": "05", "departamen": "ANTIOQUIA", "cod_munici": "652", "nombre_geo": "Quebrada de Honduras", "codigo": "05652", "proyecto": null, "symbol": "2", "ruleid": 0, "orig_fid": 0, "estado_dre": 5101, "dispersion": "0", "longitud_1": 6360.79, "shape_le_1": 943.48263890700002, "shape_le_2": 0.057478442578700002, "shape_le_3": 0.057478442325600003, "shape_le_4": 943.48263890700002, "shape_le_5": 943.48263890700002, "weight_time": 0.335753, "length_m": 943.48263890747239, "weight_len": 943.48263890747239, "sample_id": 3, "place_name": "Pto Colecta 3-Magdalena Arriba Nare", "species_nm": "Astyanax fasciatus", "cum_hrs": 29.8459, "cum_len": 49444.855339318645, "total_hrs": 727.215176, "total_len": 1204228.1346338994, "total_min": 43632.91056, "length": 943.48263890747239 }, "geometry": { "type": "LineString", "coordinates": [ [ -74.986756240153966, 5.806757203853877, 0.0 ], [ -74.986756239686187, 5.800090537954546, 0.0 ], [ -74.987589573650268, 5.798423871041321, 0.0 ] ] } },
{ "type": "Feature", "properties": { "objectid": 21510, "arcid": 22564, "grid_code": 2, "from_node": 22873, "to_node": 22958, "elevmed": 559.7, "arcid_1": 22564.0, "time": 0.98989, "longitud": 3315.2374615700001, "shape_leng": 3315.2374774800001, "fid_munici": 675, "nombre_ent": "SAN FRANCISCO", "categoria": "M", "cod_depart": "05", "departamen": "ANTIOQUIA", "cod_munici": "652", "nombre_geo": "Río Tigre", "codigo": "05652", "proyecto": null, "symbol": "2", "ruleid": 0, "orig_fid": 0, "estado_dre": 5101, "dispersion": "0", "longitud_1": 11702.8, "shape_le_1": 3315.2374774800001, "shape_le_2": 0.10571507969799999, "shape_le_3": 0.105715082237, "shape_le_4": 3315.2374774800001, "shape_le_5": 3315.2374774800001, "weight_time": 0.98989, "length_m": 3315.2374774849727, "weight_len": 3315.2374774849727, "sample_id": 3, "place_name": "Pto Colecta 3-Magdalena Arriba Nare", "species_nm": "Astyanax fasciatus", "cum_hrs": 28.85601, "cum_len": 46129.617861833671, "total_hrs": 727.215176, "total_len": 1204228.1346338994, "total_min": 43632.91056, "length": 3315.2374774849727 }, "geometry": { "type": "LineString", "coordinates": [ [ -74.987589573650268, 5.798423871041321, 0.0 ], [ -74.9867562399549, 5.797590537621806, 0.0 ], [ -74.986756240139229, 5.79509053797876, 0.0 ], [ -74.984256240277219, 5.79259053777457, 0.0 ], [ -74.984256240203067, 5.790923870851496, 0.0 ], [ -74.980922906854119, 5.788423870738955, 0.0 ], [ -74.980922906717595, 5.786757203875361, 0.0 ], [ -74.975922906230238, 5.779257204192919, 0.0 ], [ -74.972589573027165, 5.777590537306268, 0.0 ], [ -74.970089573411485, 5.777590537611784, 0.0 ] ] } },
{ "type": "Feature", "properties": { "objectid": 21511, "arcid": 22565, "grid_code": 3, "from_node": 22958, "to_node": 22671, "elevmed": 464.3, "arcid_1": 22565.0, "time": 3.154375, "longitud": 8928.2554586000006, "shape_leng": 8928.2554519700006, "fid_munici": 662, "nombre_ent": "SONSÓN", "categoria": "M", "cod_depart": "05", "departamen": "ANTIOQUIA", "cod_munici": "756", "nombre_geo": null, "codigo": "05756", "proyecto": null, "symbol": "2", "ruleid": 0, "orig_fid": 0, "estado_dre": 5101, "dispersion": "0", "longitud_1": 930.38, "shape_le_1": 6448.8914155000002, "shape_le_2": 0.0084069239083900005, "shape_le_3": 0.0084069244229100001, "shape_le_4": 6448.8914155000002, "shape_le_5": 6448.8914155000002, "weight_time": 3.154375, "length_m": 6448.8914155043103, "weight_len": 6448.8914155043103, "sample_id": 3, "place_name": "Pto Colecta 3-Magdalena Arriba Nare", "species_nm": "Astyanax fasciatus", "cum_hrs": 25.701635, "cum_len": 43650.253825372594, "total_hrs": 727.215176, "total_len": 1204228.1346338994, "total_min": 43632.91056, "length": 6448.8914155043103 }, "geometry": { "type": "MultiLineString", "coordinates": [ [ [ -74.933280195888926, 5.80738794033154, 0.0 ], [ -74.932589573767373, 5.808423871233448, 0.0 ], [ -74.933422906723195, 5.810090537990892, 0.0 ], [ -74.933422906575501, 5.814257204653693, 0.0 ], [ -74.93425623979374, 5.81509053753121, 0.0 ], [ -74.932589573126336, 5.817590537240449, 0.0 ], [ -74.932589573131565, 5.819257204625906, 0.0 ], [ -74.929256239885376, 5.821757204208258, 0.0 ], [ -74.929256240127501, 5.830016761612745, 0.0 ] ], [ [ -74.93798762558113, 5.797325169785488, 0.0 ], [ -74.937589572923599, 5.797590537176601, 0.0 ], [ -74.935922906387447, 5.805090537355297, 0.0 ], [ -74.934256240163492, 5.80592387104497, 0.0 ], [ -74.933894790042331, 5.806466047646454, 0.0 ] ], [ [ -74.94546202895917, 5.785923870845947, 0.0 ], [ -74.945089573468067, 5.785923870816153, 0.0 ], [ -74.942589573060289, 5.788423871266052, 0.0 ], [ -74.940089573506981, 5.795923871366923, 0.0 ], [ -74.938768287559142, 5.796804730148953, 0.0 ] ], [ [ -74.949581161538489, 5.78269884600943, 0.0 ], [ -74.949256240050914, 5.78259053761175, 0.0 ], [ -74.94696944938481, 5.785639593502806, 0.0 ] ], [ [ -74.954410263708894, 5.781757205469356, 0.0 ], [ -74.954256239701124, 5.781757204608318, 0.0 ], [ -74.954003638270734, 5.781925606189999, 0.0 ] ], [ [ -74.963460642270007, 5.778278696294345, 0.0 ], [ -74.962589573057869, 5.778423871351671, 0.0 ], [ -74.960354050089293, 5.780659399977391, 0.0 ] ] ] } },
{ "type": "Feature", "properties": { "objectid": 21511, "arcid": 22565, "grid_code": 3, "from_node": 22958, "to_node": 22671, "elevmed": 464.3, "arcid_1": 22565.0, "time": 3.154375, "longitud": 8928.2554586000006, "shape_leng": 8928.2554519700006, "fid_munici": 675, "nombre_ent": "SAN FRANCISCO", "categoria": "M", "cod_depart": "05", "departamen": "ANTIOQUIA", "cod_munici": "652", "nombre_geo": "Río Tigre", "codigo": "05652", "proyecto": null, "symbol": "2", "ruleid": 0, "orig_fid": 0, "estado_dre": 5101, "dispersion": "0", "longitud_1": 11702.8, "shape_le_1": 2479.3640364600001, "shape_le_2": 0.10571507969799999, "shape_le_3": 0.105715082237, "shape_le_4": 2479.3640364600001, "shape_le_5": 2479.3640364600001, "weight_time": 3.154375, "length_m": 2479.3640364610728, "weight_len": 2479.3640364610728, "sample_id": 3, "place_name": "Pto Colecta 3-Magdalena Arriba Nare", "species_nm": "Astyanax fasciatus", "cum_hrs": 25.701635, "cum_len": 43650.253825372594, "total_hrs": 727.215176, "total_len": 1204228.1346338994, "total_min": 43632.91056, "length": 2479.3640364610728 }, "geometry": { "type": "MultiLineString", "coordinates": [ [ [ -74.929256240127501, 5.830016761612745, 0.0 ], [ -74.929256240327121, 5.830090537956156, 0.0 ] ], [ [ -74.933894790042331, 5.806466047646454, 0.0 ], [ -74.933280195888926, 5.80738794033154, 0.0 ] ], [ [ -74.938768287559142, 5.796804730148953, 0.0 ], [ -74.93798762558113, 5.797325169785488, 0.0 ] ], [ [ -74.94696944938481, 5.785639593502806, 0.0 ], [ -74.946756240279527, 5.785923870739667, 0.0 ], [ -74.94546202895917, 5.785923870845947, 0.0 ] ], [ [ -74.954003638270734, 5.781925606189999, 0.0 ], [ -74.951756240342235, 5.783423871289656, 0.0 ], [ -74.949581161538489, 5.78269884600943, 0.0 ] ], [ [ -74.960354050089293, 5.780659399977391, 0.0 ], [ -74.959256239863549, 5.7817572038985, 0.0 ], [ -74.954410263708894, 5.781757205469356, 0.0 ] ], [ [ -74.970089573411485, 5.777590537611784, 0.0 ], [ -74.969256240062151, 5.778423870842796, 0.0 ], [ -74.967589573022053, 5.777590537764983, 0.0 ], [ -74.963460642270007, 5.778278696294345, 0.0 ] ] ] } },
{ "type": "Feature", "properties": { "objectid": 21547, "arcid": 22601, "grid_code": 2, "from_node": 22996, "to_node": 22958, "elevmed": 514.3, "arcid_1": 22601.0, "time": 0.497088, "longitud": 737.58529108100004, "shape_leng": 737.58530097200003, "fid_munici": 662, "nombre_ent": "SONSÓN", "categoria": "M", "cod_depart": "05", "departamen": "ANTIOQUIA", "cod_munici": "756", "nombre_geo": null, "codigo": "05756", "proyecto": null, "symbol": null, "ruleid": 0, "orig_fid": 0, "estado_dre": 0, "dispersion": null, "longitud_1": 0.0, "shape_le_1": 296.97800425499997, "shape_le_2": 0.0, "shape_le_3": 0.0, "shape_le_4": 296.97800425499997, "shape_le_5": 296.97800425499997, "weight_time": 0.497088, "length_m": 296.97800425462287, "weight_len": 296.97800425462287, "sample_id": 3, "place_name": "Pto Colecta 3-Magdalena Arriba Nare", "species_nm": "Astyanax fasciatus", "cum_hrs": 28.85601, "cum_len": 46129.617861833671, "total_hrs": 727.215176, "total_len": 1204228.1346338994, "total_min": 43632.91056, "length": 296.97800425462287 }, "geometry": { "type": "LineString", "coordinates": [ [ -74.972589573146507, 5.77242694200479, 0.0 ], [ -74.97258957344944, 5.774257204685809, 0.0 ], [ -74.97207691352699, 5.774940753950969, 0.0 ] ] } },
{ "type": "Feature", "properties": { "objectid": 21547, "arcid": 22601, "grid_code": 2, "from_node": 22996, "to_node": 22958, "elevmed": 514.3, "arcid_1": 22601.0, "time": 0.497088, "longitud": 737.58529108100004, "shape_leng": 737.58530097200003, "fid_munici": 675, "nombre_ent": "SAN FRANCISCO", "categoria": "M", "cod_depart": "05", "departamen": "ANTIOQUIA", "cod_munici": "652", "nombre_geo": "Quebrada San Juan", "codigo": "05652", "proyecto": null, "symbol": "2", "ruleid": 0, "orig_fid": 0, "estado_dre": 5101, "dispersion": "0", "longitud_1": 3244.69, "shape_le_1": 440.607296717, "shape_le_2": 0.0293145298315, "shape_le_3": 0.0293145304721, "shape_le_4": 440.607296717, "shape_le_5": 440.607296717, "weight_time": 0.497088, "length_m": 440.60729671713676, "weight_len": 440.60729671713676, "sample_id": 3, "place_name": "Pto Colecta 3-Magdalena Arriba Nare", "species_nm": "Astyanax fasciatus", "cum_hrs": 28.85601, "cum_len": 46129.617861833671, "total_hrs": 727.215176, "total_len": 1204228.1346338994, "total_min": 43632.91056, "length": 440.60729671713676 }, "geometry": { "type": "MultiLineString", "coordinates": [ [ [ -74.97207691352699, 5.774940753950969, 0.0 ], [ -74.970089573411485, 5.777590537611784, 0.0 ] ], [ [ -74.972589573257608, 5.771757204293517, 0.0 ], [ -74.972589573146507, 5.77242694200479, 0.0 ] ] ] } },
{ "type": "Feature", "properties": { "objectid": 21621, "arcid": 22677, "grid_code": 2, "from_node": 23068, "to_node": 22996, "elevmed": 650.8, "arcid_1": 22677.0, "time": 1.291224, "longitud": 3864.6062335800002, "shape_leng": 3864.6062439900002, "fid_munici": 662, "nombre_ent": "SONSÓN", "categoria": "M", "cod_depart": "05", "departamen": "ANTIOQUIA", "cod_munici": "756", "nombre_geo": null, "codigo": "05756", "proyecto": null, "symbol": "2", "ruleid": 0, "orig_fid": 0, "estado_dre": 5101, "dispersion": "0", "longitud_1": 4619.29, "shape_le_1": 2642.3194462500001, "shape_le_2": 0.041726745991399999, "shape_le_3": 0.041726746055100003, "shape_le_4": 2642.3194462500001, "shape_le_5": 2642.3194462500001, "weight_time": 1.291224, "length_m": 2642.3194462519032, "weight_len": 2642.3194462519032, "sample_id": 3, "place_name": "Pto Colecta 3-Magdalena Arriba Nare", "species_nm": "Astyanax fasciatus", "cum_hrs": 29.353098, "cum_len": 46570.225158550806, "total_hrs": 727.215176, "total_len": 1204228.1346338994, "total_min": 43632.91056, "length": 2642.3194462519032 }, "geometry": { "type": "MultiLineString", "coordinates": [ [ [ -74.978113003017867, 5.768656317706237, 0.0 ], [ -74.975089573566621, 5.770923871193903, 0.0 ], [ -74.973422907074635, 5.770090537585639, 0.0 ], [ -74.972844121823172, 5.771248108387182, 0.0 ] ], [ [ -74.982606736961372, 5.766490871737225, 0.0 ], [ -74.981756240132668, 5.765923871274963, 0.0 ], [ -74.978581620377909, 5.768304854794082, 0.0 ] ], [ [ -74.98944656006158, 5.764749321697733, 0.0 ], [ -74.988422906972517, 5.765090537317727, 0.0 ], [ -74.986413104394074, 5.767100342660979, 0.0 ] ], [ [ -74.992001319277392, 5.764257208535257, 0.0 ], [ -74.990922906207672, 5.764257204051342, 0.0 ], [ -74.989886832072983, 5.764602564042836, 0.0 ] ], [ [ -75.000922906956845, 5.76009053729491, 0.0 ], [ -75.000089573444896, 5.760090537868362, 0.0 ], [ -74.996956558401891, 5.764006808778826, 0.0 ] ] ] } },
{ "type": "Feature", "properties": { "objectid": 21621, "arcid": 22677, "grid_code": 2, "from_node": 23068, "to_node": 22996, "elevmed": 650.8, "arcid_1": 22677.0, "time": 1.291224, "longitud": 3864.6062335800002, "shape_leng": 3864.6062439900002, "fid_munici": 675, "nombre_ent": "SAN FRANCISCO", "categoria": "M", "cod_depart": "05", "departamen": "ANTIOQUIA", "cod_munici": "652", "nombre_geo": "Río Claro", "codigo": "05652", "proyecto": null, "symbol": "2", "ruleid": 0, "orig_fid": 0, "estado_dre": 5101, "dispersion": "0", "longitud_1": 59934.3, "shape_le_1": 1222.2867977400001, "shape_le_2": 0.54150336393099996, "shape_le_3": 0.54150336432500001, "shape_le_4": 1222.2867977400001, "shape_le_5": 1222.2867977400001, "weight_time": 1.291224, "length_m": 1222.2867977407684, "weight_len": 1222.2867977407684, "sample_id": 3, "place_name": "Pto Colecta 3-Magdalena Arriba Nare", "species_nm": "Astyanax fasciatus", "cum_hrs": 29.353098, "cum_len": 46570.225158550806, "total_hrs": 727.215176, "total_len": 1204228.1346338994, "total_min": 43632.91056, "length": 1222.2867977407684 }, "geometry": { "type": "MultiLineString", "coordinates": [ [ [ -74.972844121823172, 5.771248108387182, 0.0 ], [ -74.972589573257608, 5.771757204293517, 0.0 ] ], [ [ -74.978581620377909, 5.768304854794082, 0.0 ], [ -74.978113003017867, 5.768656317706237, 0.0 ] ], [ [ -74.986413104394074, 5.767100342660979, 0.0 ], [ -74.985922906869249, 5.767590537355882, 0.0 ], [ -74.984256239777309, 5.767590537496675, 0.0 ], [ -74.982606736961372, 5.766490871737225, 0.0 ] ], [ [ -74.989886832072983, 5.764602564042836, 0.0 ], [ -74.98944656006158, 5.764749321697733, 0.0 ] ], [ [ -74.996956558401891, 5.764006808778826, 0.0 ], [ -74.996756239925361, 5.764257204647287, 0.0 ], [ -74.992001319277392, 5.764257208535257, 0.0 ] ] ] } },
{ "type": "Feature", "properties": { "objectid": 18714, "arcid": 19690, "grid_code": 2, "from_node": 20052, "to_node": 19925, "elevmed": 118.9, "arcid_1": 19690.0, "time": 3.234585, "longitud": 3165.2214852299999, "shape_leng": 3165.22160338, "fid_munici": 810, "nombre_ent": "CIMITARRA", "categoria": "M", "cod_depart": "68", "departamen": "SANTANDER", "cod_munici": "190", "nombre_geo": "Caño Venado", "codigo": "68190", "proyecto": null, "symbol": "2", "ruleid": 0, "orig_fid": 0, "estado_dre": 5101, "dispersion": "0", "longitud_1": 12945.0, "shape_le_1": 3165.22160338, "shape_le_2": 0.117020015753, "shape_le_3": 0.117020017309, "shape_le_4": 3165.22160338, "shape_le_5": 3165.22160338, "weight_time": 3.234585, "length_m": 3165.2216033757804, "weight_len": 3165.2216033757804, "sample_id": 5, "place_name": "Pto Colecta 5-Magdalena en Pto. Berrio", "species_nm": "Astyanax fasciatus", "cum_hrs": 22.051161, "cum_len": 26049.22659476168, "total_hrs": 75.556171, "total_len": 88094.162897831731, "total_min": 4533.37026, "length": 3165.2216033757804 }, "geometry": { "type": "LineString", "coordinates": [ [ -74.323422906506138, 6.282590537920903, 0.0 ], [ -74.326756240371083, 6.28342387133412, 0.0 ], [ -74.328422906954387, 6.285923870750223, 0.0 ], [ -74.330089573696583, 6.28592387052724, 0.0 ], [ -74.332589573363279, 6.28842387085521, 0.0 ], [ -74.332589572889376, 6.290923870840061, 0.0 ], [ -74.334256239969434, 6.295090537952977, 0.0 ], [ -74.331756239684196, 6.297590538033609, 0.0 ], [ -74.332589573459401, 6.29842387117287, 0.0 ], [ -74.330922907060483, 6.303423871268749, 0.0 ] ] } },
{ "type": "Feature", "properties": { "objectid": 18744, "arcid": 19722, "grid_code": 2, "from_node": 20040, "to_node": 20052, "elevmed": 125.8, "arcid_1": 19722.0, "time": 2.933518, "longitud": 3616.0401207800001, "shape_leng": 3616.0399068000002, "fid_munici": 810, "nombre_ent": "CIMITARRA", "categoria": "M", "cod_depart": "68", "departamen": "SANTANDER", "cod_munici": "190", "nombre_geo": "Caño Campo Abeja", "codigo": "68190", "proyecto": null, "symbol": "2", "ruleid": 0, "orig_fid": 0, "estado_dre": 5101, "dispersion": "0", "longitud_1": 5816.86, "shape_le_1": 3616.0399068000002, "shape_le_2": 0.052585135372999997, "shape_le_3": 0.052585136963899999, "shape_le_4": 3616.0399068000002, "shape_le_5": 3616.0399068000002, "weight_time": 2.933518, "length_m": 3616.0399067951244, "weight_len": 3616.0399067951244, "sample_id": 5, "place_name": "Pto Colecta 5-Magdalena en Pto. Berrio", "species_nm": "Astyanax fasciatus", "cum_hrs": 25.285746, "cum_len": 29214.448198137459, "total_hrs": 75.556171, "total_len": 88094.162897831731, "total_min": 4533.37026, "length": 3616.0399067951244 }, "geometry": { "type": "LineString", "coordinates": [ [ -74.298422906504186, 6.284257203941755, 0.0 ], [ -74.300089573596111, 6.282590537860308, 0.0 ], [ -74.304256240179527, 6.283423870586, 0.0 ], [ -74.31008957352708, 6.277590537870651, 0.0 ], [ -74.315089573331605, 6.27925720473131, 0.0 ], [ -74.317589573221539, 6.28175720450989, 0.0 ], [ -74.320922906209759, 6.279257204286655, 0.0 ], [ -74.322589572939336, 6.280923871368621, 0.0 ], [ -74.322589573532397, 6.282590537363401, 0.0 ], [ -74.323422906506138, 6.282590537920903, 0.0 ] ] } },
{ "type": "Feature", "properties": { "objectid": 18763, "arcid": 19742, "grid_code": 2, "from_node": 20102, "to_node": 20040, "elevmed": 134.0, "arcid_1": 19742.0, "time": 1.602882, "longitud": 1637.4380845200001, "shape_leng": 1637.43801448, "fid_munici": 810, "nombre_ent": "CIMITARRA", "categoria": "M", "cod_depart": "68", "departamen": "SANTANDER", "cod_munici": "190", "nombre_geo": "Caño El Tesoro", "codigo": "68190", "proyecto": null, "symbol": "2", "ruleid": 0, "orig_fid": 0, "estado_dre": 5101, "dispersion": "0", "longitud_1": 4252.78, "shape_le_1": 1637.43801448, "shape_le_2": 0.0384431538782, "shape_le_3": 0.038443154467000001, "shape_le_4": 1637.43801448, "shape_le_5": 1637.43801448, "weight_time": 1.602882, "length_m": 1637.438014484344, "weight_len": 1637.438014484344, "sample_id": 5, "place_name": "Pto Colecta 5-Magdalena en Pto. Berrio", "species_nm": "Astyanax fasciatus", "cum_hrs": 28.219264, "cum_len": 32830.488104932585, "total_hrs": 75.556171, "total_len": 88094.162897831731, "total_min": 4533.37026, "length": 1637.438014484344 }, "geometry": { "type": "LineString", "coordinates": [ [ -74.288422906661395, 6.275090537437265, 0.0 ], [ -74.29175623967339, 6.27592387070691, 0.0 ], [ -74.29342290634186, 6.277590537813187, 0.0 ], [ -74.29342290675676, 6.280090537592742, 0.0 ], [ -74.298422906504186, 6.284257203941755, 0.0 ] ] } },
{ "type": "Feature", "properties": { "objectid": 16001, "arcid": 16889, "grid_code": 2, "from_node": 17228, "to_node": 17176, "elevmed": 98.8, "arcid_1": 16889.0, "time": 0.9017, "longitud": 1441.9054919600001, "shape_leng": 1441.9055490799999, "fid_munici": 832, "nombre_ent": "SIMACOTA", "categoria": "M", "cod_depart": "68", "departamen": "SANTANDER", "cod_munici": "745", "nombre_geo": "Caño Los Limones", "codigo": "68745", "proyecto": null, "symbol": "2", "ruleid": 0, "orig_fid": 0, "estado_dre": 5101, "dispersion": "0", "longitud_1": 10293.5, "shape_le_1": 1441.9055490799999, "shape_le_2": 0.093096637511000002, "shape_le_3": 0.093096635527200003, "shape_le_4": 1441.9055490799999, "shape_le_5": 1441.9055490799999, "weight_time": 0.9017, "length_m": 1441.905549079243, "weight_len": 1441.905549079243, "sample_id": 7, "place_name": "Pto Colecta 9-Opon", "species_nm": "Astyanax fasciatus", "cum_hrs": 19.125974, "cum_len": 17503.400235044326, "total_hrs": 39.153648, "total_len": 36448.70601916789, "total_min": 2349.21888, "length": 1441.905549079243 }, "geometry": { "type": "LineString", "coordinates": [ [ -73.826756240090035, 6.765090537552161, 0.0 ], [ -73.827589573584262, 6.767590537678196, 0.0 ], [ -73.831756240297096, 6.771757204395572, 0.0 ], [ -73.831756240418727, 6.775090537464303, 0.0 ], [ -73.830922906860849, 6.775923871339823, 0.0 ] ] } },
{ "type": "Feature", "properties": { "objectid": 16108, "arcid": 17002, "grid_code": 2, "from_node": 17348, "to_node": 17228, "elevmed": 102.3, "arcid_1": 17002.0, "time": 3.515613, "longitud": 4050.8190496100001, "shape_leng": 4050.8190177299998, "fid_munici": 832, "nombre_ent": "SIMACOTA", "categoria": "M", "cod_depart": "68", "departamen": "SANTANDER", "cod_munici": "745", "nombre_geo": null, "codigo": "68745", "proyecto": null, "symbol": "2", "ruleid": 0, "orig_fid": 0, "estado_dre": 5101, "dispersion": "0", "longitud_1": 1957.67, "shape_le_1": 4050.8190177299998, "shape_le_2": 0.0177043227882, "shape_le_3": 0.0177043222165, "shape_le_4": 4050.8190177299998, "shape_le_5": 4050.8190177299998, "weight_time": 3.515613, "length_m": 4050.8190177324359, "weight_len": 4050.8190177324359, "sample_id": 7, "place_name": "Pto Colecta 9-Opon", "species_nm": "Astyanax fasciatus", "cum_hrs": 20.027674, "cum_len": 18945.305784123568, "total_hrs": 39.153648, "total_len": 36448.70601916789, "total_min": 2349.21888, "length": 4050.8190177324359 }, "geometry": { "type": "LineString", "coordinates": [ [ -73.803422906814845, 6.742590537688415, 0.0 ], [ -73.809256240276042, 6.750090537305899, 0.0 ], [ -73.812589573665718, 6.750090537628392, 0.0 ], [ -73.815089573490013, 6.75175720402591, 0.0 ], [ -73.815922906342109, 6.759257204510619, 0.0 ], [ -73.818422906519729, 6.761757204297925, 0.0 ], [ -73.820922906219366, 6.761757204644824, 0.0 ], [ -73.824256240237133, 6.765090537602368, 0.0 ], [ -73.826756240090035, 6.765090537552161, 0.0 ] ] } }
]
}
